[
  {
    "OBJECT_NAME": "STARLINK-32441",
    "OBJECT_ID": "24193H",
    "EPOCH": "2025-11-11T04:46:59.246112",
    "MEAN_MOTION": 15.30198467,
    "ECCENTRICITY": 0.0001309,
    "INCLINATION": 53.1592,
    "RA_OF_ASC_NODE": 281.4924,
    "ARG_OF_PERICENTER": 76.6873,
    "MEAN_ANOMALY": 283.4274,
    "EPHEMERIS_TYPE": 0,
    "CLASSIFICATION_TYPE": "U",
    "NORAD_CAT_ID": 61668,
    "ELEMENT_SET_NO": 999,
    "REV_AT_EPOCH": 5838,
    "BSTAR": 0.00012236,
    "MEAN_MOTION_DOT": 3.266e-05,
    "MEAN_MOTION_DDOT": 0.0,
    "TLE_LINE1": "1 61668U 24193H   25315.19929683  .00003266  00000+0  12236-3 0  9992",
    "TLE_LINE2": "2 61668  53.1592 281.4924 0001309  76.6873 283.4274 15.30198467 58382",
    "COMMENT": "Grouped by shell and plane from TLE"
  },
  {
    "OBJECT_NAME": "STARLINK-32449",
    "OBJECT_ID": "24193K",
    "EPOCH": "2025-11-11T03:03:48.674016",
    "MEAN_MOTION": 15.30193508,
    "ECCENTRICITY": 0.0001302,
    "INCLINATION": 53.1605,
    "RA_OF_ASC_NODE": 281.7571,
    "ARG_OF_PERICENTER": 95.492,
    "MEAN_ANOMALY": 264.6229,
    "EPHEMERIS_TYPE": 0,
    "CLASSIFICATION_TYPE": "U",
    "NORAD_CAT_ID": 61670,
    "ELEMENT_SET_NO": 999,
    "REV_AT_EPOCH": 5837,
    "BSTAR": 0.00011279000000000001,
    "MEAN_MOTION_DOT": 2.982e-05,
    "MEAN_MOTION_DDOT": 0.0,
    "TLE_LINE1": "1 61670U 24193K   25315.12764669  .00002982  00000+0  11279-3 0  9999",
    "TLE_LINE2": "2 61670  53.1605 281.7571 0001302  95.4920 264.6229 15.30193508 58377",
    "COMMENT": "Grouped by shell and plane from TLE"
  },
  {
    "OBJECT_NAME": "STARLINK-32453",
    "OBJECT_ID": "24193L",
    "EPOCH": "2025-11-11T04:19:37.437888",
    "MEAN_MOTION": 15.30201691,
    "ECCENTRICITY": 0.0001289,
    "INCLINATION": 53.1612,
    "RA_OF_ASC_NODE": 281.3752,
    "ARG_OF_PERICENTER": 88.783,
    "MEAN_ANOMALY": 271.3319,
    "EPHEMERIS_TYPE": 0,
    "CLASSIFICATION_TYPE": "U",
    "NORAD_CAT_ID": 61671,
    "ELEMENT_SET_NO": 999,
    "REV_AT_EPOCH": 5838,
    "BSTAR": 8.562100000000001e-05,
    "MEAN_MOTION_DOT": 2.178e-05,
    "MEAN_MOTION_DDOT": 0.0,
    "TLE_LINE1": "1 61671U 24193L   25315.18029442  .00002178  00000+0  85621-4 0  9999",
    "TLE_LINE2": "2 61671  53.1612 281.3752 0001289  88.7830 271.3319 15.30201691 58381",
    "COMMENT": "Grouped by shell and plane from TLE"
  },
  {
    "OBJECT_NAME": "STARLINK-32443",
    "OBJECT_ID": "24193M",
    "EPOCH": "2025-11-11T04:16:36.592320",
    "MEAN_MOTION": 15.30189171,
    "ECCENTRICITY": 0.0002952,
    "INCLINATION": 53.1604,
    "RA_OF_ASC_NODE": 281.3653,
    "ARG_OF_PERICENTER": 41.9642,
    "MEAN_ANOMALY": 318.1585,
    "EPHEMERIS_TYPE": 0,
    "CLASSIFICATION_TYPE": "U",
    "NORAD_CAT_ID": 61672,
    "ELEMENT_SET_NO": 999,
    "REV_AT_EPOCH": 5838,
    "BSTAR": 0.0,
    "MEAN_MOTION_DOT": -4.6e-06,
    "MEAN_MOTION_DDOT": 0.0,
    "TLE_LINE1": "1 61672U 24193M   25315.17820130 -.00000460  00000+0 -33845-5 0  9998",
    "TLE_LINE2": "2 61672  53.1604 281.3653 0002952  41.9642 318.1585 15.30189171 58386",
    "COMMENT": "Grouped by shell and plane from TLE"
  },
  {
    "OBJECT_NAME": "STARLINK-32417",
    "OBJECT_ID": "24193N",
    "EPOCH": "2025-11-11T04:10:30.537984",
    "MEAN_MOTION": 15.30196256,
    "ECCENTRICITY": 0.0001418,
    "INCLINATION": 53.1616,
    "RA_OF_ASC_NODE": 281.338,
    "ARG_OF_PERICENTER": 80.0074,
    "MEAN_ANOMALY": 280.1087,
    "EPHEMERIS_TYPE": 0,
    "CLASSIFICATION_TYPE": "U",
    "NORAD_CAT_ID": 61673,
    "ELEMENT_SET_NO": 999,
    "REV_AT_EPOCH": 5838,
    "BSTAR": 8.3286e-05,
    "MEAN_MOTION_DOT": 2.108e-05,
    "MEAN_MOTION_DDOT": 0.0,
    "TLE_LINE1": "1 61673U 24193N   25315.17396456  .00002108  00000+0  83286-4 0  9990",
    "TLE_LINE2": "2 61673  53.1616 281.3380 0001418  80.0074 280.1087 15.30196256 58383",
    "COMMENT": "Grouped by shell and plane from TLE"
  },
  {
    "OBJECT_NAME": "STARLINK-32326",
    "OBJECT_ID": "24193P",
    "EPOCH": "2025-11-11T07:15:34.179552",
    "MEAN_MOTION": 15.301892,
    "ECCENTRICITY": 0.0001336,
    "INCLINATION": 53.1619,
    "RA_OF_ASC_NODE": 280.7142,
    "ARG_OF_PERICENTER": 100.0042,
    "MEAN_ANOMALY": 260.111,
    "EPHEMERIS_TYPE": 0,
    "CLASSIFICATION_TYPE": "U",
    "NORAD_CAT_ID": 61674,
    "ELEMENT_SET_NO": 999,
    "REV_AT_EPOCH": 5840,
    "BSTAR": 0.00011412,
    "MEAN_MOTION_DOT": 3.021e-05,
    "MEAN_MOTION_DDOT": 0.0,
    "TLE_LINE1": "1 61674U 24193P   25315.30247893  .00003021  00000+0  11412-3 0  9992",
    "TLE_LINE2": "2 61674  53.1619 280.7142 0001336 100.0042 260.1110 15.30189200 58402",
    "COMMENT": "Grouped by shell and plane from TLE"
  },
  {
    "OBJECT_NAME": "STARLINK-32294",
    "OBJECT_ID": "24193Q",
    "EPOCH": "2025-11-11T07:11:00.816000",
    "MEAN_MOTION": 15.30198628,
    "ECCENTRICITY": 0.0001196,
    "INCLINATION": 53.1607,
    "RA_OF_ASC_NODE": 280.6962,
    "ARG_OF_PERICENTER": 87.452,
    "MEAN_ANOMALY": 272.6618,
    "EPHEMERIS_TYPE": 0,
    "CLASSIFICATION_TYPE": "U",
    "NORAD_CAT_ID": 61675,
    "ELEMENT_SET_NO": 999,
    "REV_AT_EPOCH": 5840,
    "BSTAR": 8.605300000000001e-05,
    "MEAN_MOTION_DOT": 2.19e-05,
    "MEAN_MOTION_DDOT": 0.0,
    "TLE_LINE1": "1 61675U 24193Q   25315.29931500  .00002190  00000+0  86053-4 0  9996",
    "TLE_LINE2": "2 61675  53.1607 280.6962 0001196  87.4520 272.6618 15.30198628 58407",
    "COMMENT": "Grouped by shell and plane from TLE"
  },
  {
    "OBJECT_NAME": "STARLINK-32309",
    "OBJECT_ID": "24193R",
    "EPOCH": "2025-11-11T06:55:49.600992",
    "MEAN_MOTION": 15.30191475,
    "ECCENTRICITY": 0.0001307,
    "INCLINATION": 53.1621,
    "RA_OF_ASC_NODE": 280.6313,
    "ARG_OF_PERICENTER": 92.7735,
    "MEAN_ANOMALY": 267.3415,
    "EPHEMERIS_TYPE": 0,
    "CLASSIFICATION_TYPE": "U",
    "NORAD_CAT_ID": 61676,
    "ELEMENT_SET_NO": 999,
    "REV_AT_EPOCH": 5840,
    "BSTAR": 7.245700000000001e-05,
    "MEAN_MOTION_DOT": 1.787e-05,
    "MEAN_MOTION_DDOT": 0.0,
    "TLE_LINE1": "1 61676U 24193R   25315.28876853  .00001787  00000+0  72457-4 0  9999",
    "TLE_LINE2": "2 61676  53.1621 280.6313 0001307  92.7735 267.3415 15.30191475 58404",
    "COMMENT": "Grouped by shell and plane from TLE"
  },
  {
    "OBJECT_NAME": "STARLINK-32323",
    "OBJECT_ID": "24193S",
    "EPOCH": "2025-11-11T07:04:56.722080",
    "MEAN_MOTION": 15.30189944,
    "ECCENTRICITY": 0.0001242,
    "INCLINATION": 53.1618,
    "RA_OF_ASC_NODE": 280.6685,
    "ARG_OF_PERICENTER": 91.9906,
    "MEAN_ANOMALY": 268.1237,
    "EPHEMERIS_TYPE": 0,
    "CLASSIFICATION_TYPE": "U",
    "NORAD_CAT_ID": 61677,
    "ELEMENT_SET_NO": 999,
    "REV_AT_EPOCH": 5840,
    "BSTAR": 3.524900000000001e-05,
    "MEAN_MOTION_DOT": 6.85e-06,
    "MEAN_MOTION_DDOT": 0.0,
    "TLE_LINE1": "1 61677U 24193S   25315.29510095  .00000685  00000+0  35249-4 0  9998",
    "TLE_LINE2": "2 61677  53.1618 280.6685 0001242  91.9906 268.1237 15.30189944 58401",
    "COMMENT": "Grouped by shell and plane from TLE"
  },
  {
    "OBJECT_NAME": "STARLINK-32363",
    "OBJECT_ID": "24193T",
    "EPOCH": "2025-11-11T06:58:50.881152",
    "MEAN_MOTION": 15.30207443,
    "ECCENTRICITY": 0.0001014,
    "INCLINATION": 53.1614,
    "RA_OF_ASC_NODE": 280.643,
    "ARG_OF_PERICENTER": 94.6235,
    "MEAN_ANOMALY": 265.4882,
    "EPHEMERIS_TYPE": 0,
    "CLASSIFICATION_TYPE": "U",
    "NORAD_CAT_ID": 61678,
    "ELEMENT_SET_NO": 999,
    "REV_AT_EPOCH": 5840,
    "BSTAR": 0.0,
    "MEAN_MOTION_DOT": -5.38e-06,
    "MEAN_MOTION_DDOT": 0.0,
    "TLE_LINE1": "1 61678U 24193T   25315.29086668 -.00000538  00000+0 -60332-5 0  9994",
    "TLE_LINE2": "2 61678  53.1614 280.6430 0001014  94.6235 265.4882 15.30207443 58409",
    "COMMENT": "Grouped by shell and plane from TLE"
  },
  {
    "OBJECT_NAME": "STARLINK-32395",
    "OBJECT_ID": "24193U",
    "EPOCH": "2025-11-11T06:51:25.350912",
    "MEAN_MOTION": 15.30193907,
    "ECCENTRICITY": 0.0001129,
    "INCLINATION": 53.1624,
    "RA_OF_ASC_NODE": 281.3206,
    "ARG_OF_PERICENTER": 97.6769,
    "MEAN_ANOMALY": 262.436,
    "EPHEMERIS_TYPE": 0,
    "CLASSIFICATION_TYPE": "U",
    "NORAD_CAT_ID": 61679,
    "ELEMENT_SET_NO": 999,
    "REV_AT_EPOCH": 5839,
    "BSTAR": 0.00013011,
    "MEAN_MOTION_DOT": 3.496e-05,
    "MEAN_MOTION_DDOT": 0.0,
    "TLE_LINE1": "1 61679U 24193U   25315.28571008  .00003496  00000+0  13011-3 0  9995",
    "TLE_LINE2": "2 61679  53.1624 281.3206 0001129  97.6769 262.4360 15.30193907 58397",
    "COMMENT": "Grouped by shell and plane from TLE"
  },
  {
    "OBJECT_NAME": "STARLINK-32412",
    "OBJECT_ID": "24193V",
    "EPOCH": "2025-11-11T06:40:47.448480",
    "MEAN_MOTION": 15.30196298,
    "ECCENTRICITY": 0.0001197,
    "INCLINATION": 53.1619,
    "RA_OF_ASC_NODE": 281.2725,
    "ARG_OF_PERICENTER": 102.4354,
    "MEAN_ANOMALY": 257.6781,
    "EPHEMERIS_TYPE": 0,
    "CLASSIFICATION_TYPE": "U",
    "NORAD_CAT_ID": 61680,
    "ELEMENT_SET_NO": 999,
    "REV_AT_EPOCH": 5839,
    "BSTAR": 8.7639e-05,
    "MEAN_MOTION_DOT": 2.237e-05,
    "MEAN_MOTION_DDOT": 0.0,
    "TLE_LINE1": "1 61680U 24193V   25315.27832695  .00002237  00000+0  87639-4 0  9998",
    "TLE_LINE2": "2 61680  53.1619 281.2725 0001197 102.4354 257.6781 15.30196298 58397",
    "COMMENT": "Grouped by shell and plane from TLE"
  },
  {
    "OBJECT_NAME": "STARLINK-32426",
    "OBJECT_ID": "24193W",
    "EPOCH": "2025-11-11T06:46:52.253472",
    "MEAN_MOTION": 15.30208278,
    "ECCENTRICITY": 0.0001115,
    "INCLINATION": 53.1611,
    "RA_OF_ASC_NODE": 281.3013,
    "ARG_OF_PERICENTER": 84.3457,
    "MEAN_ANOMALY": 275.7671,
    "EPHEMERIS_TYPE": 0,
    "CLASSIFICATION_TYPE": "U",
    "NORAD_CAT_ID": 61681,
    "ELEMENT_SET_NO": 999,
    "REV_AT_EPOCH": 5839,
    "BSTAR": 0.0,
    "MEAN_MOTION_DOT": -2.23e-05,
    "MEAN_MOTION_DDOT": 0.0,
    "TLE_LINE1": "1 61681U 24193W   25315.28254923 -.00002230  00000+0 -63171-4 0  9992",
    "TLE_LINE2": "2 61681  53.1611 281.3013 0001115  84.3457 275.7671 15.30208278 58394",
    "COMMENT": "Grouped by shell and plane from TLE"
  }
]